#aV2024  7  1  0  0  0.00000000     288 DD+AD WGS84 FIT  NGA
## 2321  86400.00000000   300.00000000 60492 0.0000000000000
+   31     2  3  4  5  6  7  8  9 10 11 12 13 14 15 16 17 18
+         19 20 21 22 23 24 25 26 27 28 29 30 31 32  0  0  0
+          0  0  0  0  0  0  0  0  0  0  0  0  0  0  0  0  0
+          0  0  0  0  0  0  0  0  0  0  0  0  0  0  0  0  0
+          0  0  0  0  0  0  0  0  0  0  0  0  0  0  0  0  0
++         2  2  2  2  2  2  2  2  2  2  2  2  2  2  2  2  2
++         2  2  2  2  2  2  2  2  2  2  2  2  2  2  0  0  0
++         0  0  0  0  0  0  0  0  0  0  0  0  0  0  0  0  0
++         0  0  0  0  0  0  0  0  0  0  0  0  0  0  0  0  0
++         0  0  0  0  0  0  0  0  0  0  0  0  0  0  0  0  0
%c cc cc ccc ccc cccc cccc cccc cccc ccccc ccccc ccccc ccccc
%c cc cc ccc ccc cccc cccc cccc cccc ccccc ccccc ccccc ccccc
%f  0.0000000  0.000000000  0.00000000000  0.000000000000000
%f  0.0000000  0.000000000  0.00000000000  0.000000000000000
%i    0    0    0    0      0      0      0      0         0
%i    0    0    0    0      0      0      0      0         0
/*      NGA, ST. LOUIS,MO.                                  
/*   EPHEMERIS COMPUTED FROM 2 DAYS OF DATA                 
/*   EPOCHA v9 SMOOTHER                                     
/*   G2296 IERS2010 SATIGS SATAPC                           
*  2024  7  1 13  5  0.00000000
P  2  19196.597274   8073.029751  17134.065474   -407.392515                    
V  2  10037.658472  18170.979931 -20081.953430      0.072141                    
P  3  18019.061755  -5435.260298  18528.871073    438.822667                    
V  3 -11768.319367  20777.361402  17503.697029      0.171628                    
P  4  26578.585241    944.298204  -1452.207085    394.766507                    
V  4   1663.833963   2684.916056  31695.071670      0.079028                    
P  5 -11106.422298 -10627.492720 -21834.497927   -178.241435                    
V  5  13739.566125 -23550.882556   4592.713804     -0.013329                    
P  6  -3120.180742 -23482.282379  11960.906354    187.226575                    
V  6   8321.181471  12697.026641  27337.614237     -0.220905                    
P  7  11499.781517 -10396.693511 -20998.122968    -79.396096                    
V  7  13692.992917  24423.638705  -4938.524478      0.086871                    
P  8  24085.413036   6879.398490  -9560.026336    255.172595                    
V  8 -11870.323630   2358.948576 -28118.556715      0.170761                    
P  9  22010.385132  -8401.540199 -12398.993093    256.047169                    
V  9  15564.299590   2517.350037  26047.088672      0.148436                    
P 10  -9378.489796  23678.954184   7117.585352    -55.421232                    
V 10  -6547.494076   6294.127281 -30765.974630     -0.090798                    
P 11 -12131.869261 -23621.861822  -1401.782025   -696.619427                    
V 11   1590.435054  -2736.944763  31765.710040     -0.074091                    
P 12 -17921.368288   1826.008828  19221.726939   -518.687864                    
V 12  13662.035850 -21005.488811  14569.335128     -0.031545                    
P 13 -17526.108895 -13594.468475 -14997.328484    661.670169                    
V 13  18539.393724   1751.156608 -23355.634884      0.025058                    
P 14  12543.188344 -23062.750346   3196.729778    438.521763                    
V 14   5113.692314  -1462.139571 -31203.990435      0.090001                    
P 15 -24539.572782  -4489.463110  -9886.094894    176.233579                    
V 15  11409.783704  -4279.999306 -27619.372895      0.042123                    
P 16   7719.809951  14332.014677 -21236.273812   -248.913965                    
V 16 -16583.651721  20417.710419   8313.930465      0.106923                    
P 17   9819.763750 -13575.576312  21065.626116    685.674376                    
V 17  25541.360507   3185.400943  -9896.161840     -0.066955                    
P 18 -10758.921874  11142.114783 -21535.078480   -631.646644                    
V 18 -12812.086740 -24189.439156  -6310.914955     -0.044278                    
P 19   -830.559100 -15173.131764  21641.245115    504.234178                    
V 19  27565.678524   3852.074817   3333.112267      0.053958                    
P 20  -5372.007814 -19416.667852 -17319.841863    373.234954                    
V 20   9911.432357 -19805.905077  18911.032548     -0.004260                    
P 21  19685.543280  13532.790514  13065.302600    111.830806                    
V 21   7277.805205  13772.909318 -25085.504058     -0.025584                    
P 22   7525.442362 -23092.585228  11504.077314    -34.249850                    
V 22  10066.251722  -9766.399903 -26897.715334     -0.047332                    
P 23 -16013.539276  20437.622261  -5019.483553    263.475639                    
V 23   1270.973419  -6718.689180 -31458.656122      0.090312                    
P 24 -19633.312259 -10335.514520  14469.043038   -481.003082                    
V 24  -8340.124955 -17280.797617 -22579.758045     -0.020444                    
P 25 -18785.924104  12677.986201  13302.483843    498.042618                    
V 25   6739.924320 -16459.197398  24842.157499      0.004369                    
P 26  -1044.268028  23005.915461 -13057.010310    127.674124                    
V 26 -10491.939482  13198.076799  24746.441892     -0.066110                    
P 27  15484.302624  12890.805134 -17807.626599    -29.962218                    
V 27 -21906.369275    646.429963 -18475.782725     -0.011096                    
P 28   1889.389268  22668.979347  13701.723632   -312.768199                    
V 28 -10520.294727 -14050.310016  24677.415571     -0.163114                    
P 29 -24344.990392   4102.201855 -10006.738717   -591.677544                    
V 29 -12258.411386  -3530.217304  28396.242672      0.018268                    
P 30   3505.997478 -19999.484255 -16831.202330   -365.182336                    
V 30  12324.774536  18201.274720 -19156.846654      0.063570                    
P 31   9651.369815  24288.540149   3125.096754   -227.070548                    
V 31  -4923.757111  -2326.512413  31519.813694      0.002400                    
P 32  -6611.585021  14665.564269  21315.455185   -614.210162                    
V 32 -26570.206983  -1461.900345  -7504.157740      0.016023                    
EOF
